{
  "type": "FeatureCollection",
  "features": [
    {
      "type": "Feature",
      "properties": {
        "norad_id": 41599,
        "name": "CARTOSAT-2C",
        "group": "resource",
        "lat": -14.596845607904637,
        "lon": -130.83745884298597,
        "alt_km": 520.0226982602508,
        "timestamp": "2025-12-19T22:41:52.036427+00:00",
        "meta_object_name": "CARTOSAT-2C",
        "meta_object_id": "2016-040A",
        "meta_epoch": "2025-12-19T18:40:58.014336",
        "meta_mean_motion": 15.19172594,
        "meta_eccentricity": 0.0011144,
        "meta_inclination": 97.4761,
        "meta_ra_of_asc_node": 50.9568,
        "meta_arg_of_pericenter": 40.8852,
        "meta_mean_anomaly": 319.3216,
        "meta_ephemeris_type": 0,
        "meta_classification_type": "U",
        "meta_norad_cat_id": 41599,
        "meta_element_set_no": 999,
        "meta_rev_at_epoch": 52647,
        "meta_bstar": 0.00011694,
        "meta_mean_motion_dot": 2.393e-05,
        "meta_mean_motion_ddot": 0,
        "tle_line1": "1 41599U 16040A   25353.77844924  .00002393  00000+0  11694-3 0  9992",
        "tle_line2": "2 41599  97.4761  50.9568 0011144  40.8852 319.3216 15.19172594526478"
      },
      "geometry": {
        "type": "Point",
        "coordinates": [
          -130.83745884298597,
          -14.596845607904637
        ]
      }
    },
    {
      "type": "Feature",
      "properties": {
        "norad_id": 41601,
        "name": "SKYSAT-C1",
        "group": "resource",
        "lat": -56.974753153586434,
        "lon": -160.31248527023422,
        "alt_km": 475.26626867495816,
        "timestamp": "2025-12-19T22:41:52.036437+00:00",
        "meta_object_name": "SKYSAT-C1",
        "meta_object_id": "2016-040C",
        "meta_epoch": "2025-12-19T13:49:47.529120",
        "meta_mean_motion": 15.32708118,
        "meta_eccentricity": 0.000158,
        "meta_inclination": 96.9813,
        "meta_ra_of_asc_node": 30.2048,
        "meta_arg_of_pericenter": 351.0695,
        "meta_mean_anomaly": 9.052,
        "meta_ephemeris_type": 0,
        "meta_classification_type": "U",
        "meta_norad_cat_id": 41601,
        "meta_element_set_no": 999,
        "meta_rev_at_epoch": 53032,
        "meta_bstar": 0.00021842,
        "meta_mean_motion_dot": 6.827e-05,
        "meta_mean_motion_ddot": 0,
        "tle_line1": "1 41601U 16040C   25353.57624455  .00006827  00000+0  21842-3 0  9991",
        "tle_line2": "2 41601  96.9813  30.2048 0001580 351.0695   9.0520 15.32708118530325"
      },
      "geometry": {
        "type": "Point",
        "coordinates": [
          -160.31248527023422,
          -56.974753153586434
        ]
      }
    },
    {
      "type": "Feature",
      "properties": {
        "norad_id": 41603,
        "name": "LAPAN-A3",
        "group": "resource",
        "lat": -6.422357068427115,
        "lon": -7.951284525540747,
        "alt_km": 470.8726148661153,
        "timestamp": "2025-12-19T22:41:52.036467+00:00",
        "meta_object_name": "LAPAN-A3",
        "meta_object_id": "2016-040E",
        "meta_epoch": "2025-12-19T18:01:19.002432",
        "meta_mean_motion": 15.31604877,
        "meta_eccentricity": 0.0008998,
        "meta_inclination": 97.1423,
        "meta_ra_of_asc_node": 351.0522,
        "meta_arg_of_pericenter": 305.4801,
        "meta_mean_anomaly": 54.5601,
        "meta_ephemeris_type": 0,
        "meta_classification_type": "U",
        "meta_norad_cat_id": 41603,
        "meta_element_set_no": 999,
        "meta_rev_at_epoch": 52733,
        "meta_bstar": 9.4957e-05,
        "meta_mean_motion_dot": 2.827e-05,
        "meta_mean_motion_ddot": 0,
        "tle_line1": "1 41603U 16040E   25353.75091438  .00002827  00000+0  94957-4 0  9996",
        "tle_line2": "2 41603  97.1423 351.0522 0008998 305.4801  54.5601 15.31604877527338"
      },
      "geometry": {
        "type": "Point",
        "coordinates": [
          -7.951284525540747,
          -6.422357068427115
        ]
      }
    },
    {
      "type": "Feature",
      "properties": {
        "norad_id": 41604,
        "name": "BIROS",
        "group": "resource",
        "lat": -78.85741016616774,
        "lon": 64.73294497313958,
        "alt_km": 304.8611409325422,
        "timestamp": "2025-12-19T22:41:52.036490+00:00",
        "meta_object_name": "BIROS",
        "meta_object_id": "2016-040F",
        "meta_epoch": "2025-12-19T01:55:23.148192",
        "meta_mean_motion": 15.92127149,
        "meta_eccentricity": 0.00035441,
        "meta_inclination": 97.0685,
        "meta_ra_of_asc_node": 24.7778,
        "meta_arg_of_pericenter": 134.1983,
        "meta_mean_anomaly": 225.9584,
        "meta_ephemeris_type": 0,
        "meta_classification_type": "U",
        "meta_norad_cat_id": 41604,
        "meta_element_set_no": 999,
        "meta_rev_at_epoch": 52973,
        "meta_bstar": 0.00053351864,
        "meta_mean_motion_dot": 0.00176218,
        "meta_mean_motion_ddot": 1.3459503e-05,
        "tle_line1": "1 41604U 16040F   25353.08012903  .00176218  13460-4  53352-3 0  9991",
        "tle_line2": "2 41604  97.0685  24.7778 0003544 134.1983 225.9584 15.92127149529734"
      },
      "geometry": {
        "type": "Point",
        "coordinates": [
          64.73294497313958,
          -78.85741016616774
        ]
      }
    },
    {
      "type": "Feature",
      "properties": {
        "norad_id": 41727,
        "name": "GAOFEN-3",
        "group": "resource",
        "lat": -23.253863115602574,
        "lon": 3.0641775844321186,
        "alt_km": 756.4682250853057,
        "timestamp": "2025-12-19T22:41:52.036503+00:00",
        "meta_object_name": "GAOFEN-3",
        "meta_object_id": "2016-049A",
        "meta_epoch": "2025-12-19T17:48:40.951296",
        "meta_mean_motion": 14.42214822,
        "meta_eccentricity": 0.0001267,
        "meta_inclination": 98.4032,
        "meta_ra_of_asc_node": 359.2218,
        "meta_arg_of_pericenter": 57.6531,
        "meta_mean_anomaly": 302.4781,
        "meta_ephemeris_type": 0,
        "meta_classification_type": "U",
        "meta_norad_cat_id": 41727,
        "meta_element_set_no": 999,
        "meta_rev_at_epoch": 49278,
        "meta_bstar": -8.0238e-06,
        "meta_mean_motion_dot": -7e-07,
        "meta_mean_motion_ddot": 0,
        "tle_line1": "1 41727U 16049A   25353.74214064 -.00000070  00000+0 -80238-5 0  9991",
        "tle_line2": "2 41727  98.4032 359.2218 0001267  57.6531 302.4781 14.42214822492787"
      },
      "geometry": {
        "type": "Point",
        "coordinates": [
          3.0641775844321186,
          -23.253863115602574
        ]
      }
    },
    {
      "type": "Feature",
      "properties": {
        "norad_id": 41771,
        "name": "SKYSAT-C4",
        "group": "resource",
        "lat": 63.03928975738799,
        "lon": 4.936310656454996,
        "alt_km": 432.1465569546417,
        "timestamp": "2025-12-19T22:41:52.036515+00:00",
        "meta_object_name": "SKYSAT-C4",
        "meta_object_id": "2016-058B",
        "meta_epoch": "2025-12-19T00:37:25.370976",
        "meta_mean_motion": 15.42424103,
        "meta_eccentricity": 0.00020919,
        "meta_inclination": 96.9363,
        "meta_ra_of_asc_node": 17.9086,
        "meta_arg_of_pericenter": 130.2828,
        "meta_mean_anomaly": 229.8603,
        "meta_ephemeris_type": 0,
        "meta_classification_type": "U",
        "meta_norad_cat_id": 41771,
        "meta_element_set_no": 999,
        "meta_rev_at_epoch": 51764,
        "meta_bstar": 0.00028649124,
        "meta_mean_motion_dot": 0.00012311,
        "meta_mean_motion_ddot": 0,
        "tle_line1": "1 41771U 16058B   25353.02598809  .00012311  00000+0  28649-3 0  9998",
        "tle_line2": "2 41771  96.9363  17.9086 0002091 130.2828 229.8603 15.42424103517644"
      },
      "geometry": {
        "type": "Point",
        "coordinates": [
          4.936310656454996,
          63.03928975738799
        ]
      }
    },
    {
      "type": "Feature",
      "properties": {
        "norad_id": 41772,
        "name": "SKYSAT-C5",
        "group": "resource",
        "lat": 54.22059454472254,
        "lon": -132.67915967240427,
        "alt_km": 460.6189027397759,
        "timestamp": "2025-12-19T22:41:52.036525+00:00",
        "meta_object_name": "SKYSAT-C5",
        "meta_object_id": "2016-058C",
        "meta_epoch": "2025-12-19T09:37:46.106976",
        "meta_mean_motion": 15.33990417,
        "meta_eccentricity": 0.0003766,
        "meta_inclination": 97.075,
        "meta_ra_of_asc_node": 36.8752,
        "meta_arg_of_pericenter": 260.952,
        "meta_mean_anomaly": 99.1298,
        "meta_ephemeris_type": 0,
        "meta_classification_type": "U",
        "meta_norad_cat_id": 41772,
        "meta_element_set_no": 999,
        "meta_rev_at_epoch": 51618,
        "meta_bstar": 0.00022283,
        "meta_mean_motion_dot": 7.254e-05,
        "meta_mean_motion_ddot": 0,
        "tle_line1": "1 41772U 16058C   25353.40122809  .00007254  00000+0  22283-3 0  9992",
        "tle_line2": "2 41772  97.0750  36.8752 0003766 260.9520  99.1298 15.33990417516189"
      },
      "geometry": {
        "type": "Point",
        "coordinates": [
          -132.67915967240427,
          54.22059454472254
        ]
      }
    }
  ]
}